COSMOS 2413 (712)       
1 28509U 04053B   16088.37784787  .00000015  00000-0  00000-0 0  9996
2 28509  63.1290 192.9769 0005361 170.8234 248.5491  2.13101892 87577
COSMOS 2419 (714)       
1 28915U 05050A   16088.93318998  .00000038  00000-0  00000+0 0  9998
2 28915  65.2871  80.8726 0016902 343.8840 142.6711  2.13109177 79846
COSMOS 2425 (716)       
1 29670U 06062A   16089.37416251 -.00000016  00000-0  10000-3 0  9993
2 29670  65.6660 319.8376 0023066 349.0727 176.1443  2.13104938 72052
COSMOS 2426 (717)       
1 29671U 06062B   16089.12062884 -.00000017  00000-0  10000-3 0  9997
2 29671  65.6836 319.9262 0015457 159.7455  32.4557  2.13102969 72054
COSMOS 2424 (715)       
1 29672U 06062C   16089.13440285 -.00000017  00000-0  10000-3 0  9994
2 29672  65.6681 319.8559 0014893 158.7859 220.4959  2.13102089 72059
COSMOS 2433 (720)       
1 32275U 07052A   16089.45886147  .00000043  00000-0  10000-3 0  9991
2 32275  65.3029  80.6240 0005201 278.9756 143.1661  2.13104891 65572
COSMOS 2432 (719)       
1 32276U 07052B   16089.46766223  .00000043  00000-0  10000-3 0  9995
2 32276  65.3149  80.6880 0013888 329.0065  53.8626  2.13104207 65576
COSMOS 2434 (721)       
1 32393U 07065A   16088.54181493 -.00000020  00000-0  00000+0 0  9998
2 32393  65.2856 319.2273 0004617  82.6459 248.6023  2.13102755 64251
COSMOS 2436 (723)       
1 32395U 07065C   16089.16385801 -.00000017  00000-0  10000-3 0  9999
2 32395  65.2984 319.2474 0018827 357.4040 183.0601  2.13102816 64202
COSMOS 2443 (725)       
1 33379U 08046B   16089.40853156  .00000042  00000-0  10000-3 0  9999
2 33379  65.2317  80.0502 0017109 194.1095  95.4811  2.13101419 58433
COSMOS 2456 (730)       
1 36111U 09070A   16089.36426635  .00000015  00000-0  00000+0 0  9992
2 36111  64.1843 198.7982 0003780 326.4338  84.9479  2.13102830 48947
COSMOS 2457 (733)       
1 36112U 09070B   16089.00141976  .00000017  00000-0  00000+0 0  9998
2 36112  64.1666 198.7393 0007000 157.8928 105.7626  2.13101483 48935
COSMOS 2458 (734)       
1 36113U 09070C   16089.01992847  .00000017  00000-0  10000-3 0  9996
2 36113  64.1722 198.7438 0001807  47.3800 277.8546  2.13102050 48933
COSMOS 2459 (731)       
1 36400U 10007A   16088.47302786  .00000033  00000-0  10000-3 0  9991
2 36400  65.2102  79.8184 0029804 348.3479 263.5271  2.13102319 47277
COSMOS 2461 (735)       
1 36401U 10007B   16088.72126525  .00000035  00000-0  10000-3 0  9997
2 36401  65.2037  79.7924 0004415  47.1593 305.7001  2.13102325 47275
COSMOS 2460 (732)       
1 36402U 10007C   16089.15398463  .00000039  00000-0  10000-3 0  9992
2 36402  65.1937  79.7555 0002753 293.8273  73.0186  2.13101914 47296
COSMOS 2466 (738)       
1 37137U 10041A   16089.23673258 -.00000017  00000-0  10000-3 0  9990
2 37137  64.8673 319.3441 0018504 152.9362 216.3753  2.13110908 43377
COSMOS 2465 (737)       
1 37138U 10041B   16088.47940622 -.00000021  00000-0  00000+0 0  9998
2 37138  64.8859 319.4431 0033166 167.1333 162.2008  2.13101127 43343
COSMOS 2464 (736)       
1 37139U 10041C   16089.23351234 -.00000017  00000-0  00000+0 0  9994
2 37139  64.8923 319.4113 0024629  13.6323 355.9406  2.13102573 43373
COSMOS 2471 (701K)      
1 37372U 11009A   16089.11097359  .00000039  00000-0  00000+0 0  9993
2 37372  65.1910  79.7063 0009111 245.8895 220.2935  2.13102852 39561
COSMOS 2474 (742)       
1 37829U 11055A   16089.43147845  .00000016  00000-0  00000+0 0  9997
2 37829  64.5090 199.1751 0007021 249.7075  75.0012  2.13101863 34931
COSMOS 2476 (744)       
1 37867U 11064A   16089.42758358  .00000016  00000-0  00000+0 0  9995
2 37867  64.4888 199.2586 0016007 245.7342 121.7865  2.13102004 34293
COSMOS 2477 (745)       
1 37868U 11064B   16089.30320797  .00000016  00000-0  00000+0 0  9995
2 37868  64.4975 199.3023 0014022 247.0237 204.4364  2.13101814 34247
COSMOS 2475 (743)       
1 37869U 11064C   16089.12706188  .00000017  00000-0  00000+0 0  9999
2 37869  64.5051 199.2955 0019419 276.0970 356.3213  2.13101919 34244
COSMOS 2478 (746)       
1 37938U 11071A   16088.73153362  .00000035  00000-0  00000+0 0  9990
2 37938  65.2185  79.9387 0014691 245.6152  46.5091  2.13088498 33844
COSMOS 2485 (747)       
1 39155U 13019A   16089.42432817  .00000016  00000-0  00000+0 0  9998
2 39155  64.6580 199.1911 0016294 239.9954 170.1935  2.13101998 22765
COSMOS 2492 (754)       
1 39620U 14012A   16089.14563959  .00000039  00000-0  19271+1 0  9996
2 39620  65.0829  79.7561 0017533 327.1620 262.1936  2.13103521 15707
COSMOS 2500 (755)       
1 40001U 14032A   16089.15637933  .00000039  00000-0  00000+0 0  9997
2 40001  65.0230  79.7850 0006814 230.2132 231.2568  2.13102963 13920
COSMOS 2501 (702K)      
1 40315U 14075A   16089.46036375 -.00000019  00000-0  00000+0 0  9998
2 40315  64.6562 320.8850 0016098 238.3193 257.9614  2.13101423 10331
COSMOS 2514 (751)       
1 41330U 16008A   16088.73188759  .00000034  00000-0  00000+0 0  9993
2 41330  64.8227  80.0559 0010197 230.9397  83.7008  2.13103510  1070
